{
  "norad_id": 56768,
  "name": "STARLINK-6198",
  "history": [
    {
      "epoch": "2026-03-28T19:50:03.027552Z",
      "apogee_km": 573.9642842031244,
      "perigee_km": 570.1297286830895,
      "latitude_deg": 6.558233271110842e-05,
      "longitude_deg": 152.3125124491363,
      "height_km": 574.3732089056572,
      "semi_major_axis_km": 6950.184006443107,
      "eccentricity": 0.00027586,
      "inclination_deg": 69.9983,
      "raan_deg": 276.0664,
      "arg_perigee_deg": 273.0157,
      "mean_anomaly_deg": 87.0687,
      "mean_motion_rev_day": 14.98332873
    }
  ]
}